SL-12 R/B(2)            
1 17125U 86090D   26064.10502948 -.00000376  00000+0  00000+0 0  9991
2 17125  10.5018 323.3923 0007606 183.8062 176.1660  1.00310016143822
GOES 7                  
1 17561U 87022A   26064.14767005  .00000078  00000+0  00000+0 0  9990
2 17561  13.0201 338.3692 0003957  14.7932  88.6766  0.99894951125927
AGILA 1 (PALAPA B2P)    
1 17706U 87029A   26063.72405968 -.00000372  00000+0  00000+0 0  9996
2 17706  14.4128 348.9675 0002983   6.7389 191.7577  0.99914224 41484
SL-12 R/B(2)            
1 17872U 76092F   26064.00700201 -.00000181  00000+0  00000+0 0  9996
2 17872   3.7309 271.6750 0014921 193.0721 144.9774  1.00225765117875
SL-12 R/B(2)            
1 17873U 79035E   26064.23505050  .00000135  00000+0  00000+0 0  9995
2 17873   5.4812 283.1227 0025506 252.1684 114.3422  1.00144325184133
SL-12 R/B(2)            
1 17874U 84016F   26062.81067524  .00000073  00000+0  00000+0 0  9993
2 17874   8.7765 311.5619 0034009 228.3334 325.7091  1.00293375121796
COSMOS 1888             
1 18384U 87084A   26064.16461498 -.00000347  00000+0  00000+0 0  9991
2 18384  10.9430 326.7417 0002517 299.0202  63.2058  1.00172654140658
SL-12 R/B(2)            
1 18387U 87084D   26063.42614078  .00000076  00000+0  00000+0 0  9994
2 18387  11.0961 327.3473 0029048 250.7551 293.6955  1.00051954147729
COSMOS 1894             
1 18443U 87091A   26064.10391888 -.00000185  00000+0  00000+0 0  9994
2 18443  10.9023 326.2113 0005375   8.3327 204.8760  1.00265202119778
SL-12 R/B(2)            
1 18446U 87091D   26063.58239373 -.00000259  00000+0  00000+0 0  9990
2 18446  10.9367 326.3848 0022427 266.0460 286.2336  1.00234085128954
COSMOS 1897             
1 18575U 87096A   26063.99818060 -.00000081  00000+0  00000+0 0  9992
2 18575  11.1682 327.5738 0005101 131.8769 133.3123  1.00322650140149
SL-12 R/B(2)            
1 18578U 87096D   26064.21104370 -.00000283  00000+0  00000+0 0  9997
2 18578  10.9617 326.8393 0022101 248.8828 304.8004  1.00575617136983
RADUGA 21               
1 18631U 87100A   26063.12197643 -.00000022  00000+0  00000+0 0  9998
2 18631  11.4560 326.0021 0001631 308.8377 168.9352  1.00356384140031
STTW-2                  
1 18922U 88014A   26064.00645081 -.00000062  00000+0  00000+0 0  9992
2 18922  13.3471 340.4390 0003354 186.1250  67.3170  1.00301431139060
SPACENET 3R             
1 18951U 88018A   26062.95122990  .00000088  00000+0  00000+0 0  9996
2 18951  14.6808   0.4818 0005506 287.0534 257.9452  0.99659334123568
COSMOS 1940             
1 19073U 88034A   26062.94100318 -.00000044  00000+0  00000+0 0  9992
2 19073  11.1122 327.2642 0021792 295.7836 226.9733  1.00656752120295
SL-12 R/B(2)            
1 19076U 88034D   26064.27448399 -.00000002  00000+0  00000+0 0  9991
2 19076  11.4080 328.2562 0022059 189.7329 344.9497  1.00083161138062
